IRIDIUM 126             
1 42809U 17039G   23310.27345701  .00000095  00000+0  26725-4 0  9990
2 42809  86.4015  32.2870 0001889  94.3002 265.8409 14.34220181333228
IRIDIUM 124             
1 42810U 17039H   23310.54536554  .00001003  00000+0  29226-3 0  9998
2 42810  86.4480 328.9514 0002455  94.4108 265.7373 14.43279941337562
IRIDIUM 128             
1 42811U 17039J   23310.61303326  .00000992  00000+0  34715-3 0  9991
2 42811  86.3973  63.6656 0001924  97.1120 263.0294 14.34221488333307
IRIDIUM 121             
1 42812U 17039K   23310.50178681  .00000335  00000+0  11239-3 0  9991
2 42812  86.4011  32.2132 0001976  89.4813 270.6609 14.34220077333131
IRIDIUM 133             
1 42955U 17061A   23310.36567148  .00000924  00000+0  32272-3 0  9992
2 42955  86.3974  63.8634 0001769  89.7847 270.3552 14.34224243318061
IRIDIUM 100             
1 42956U 17061B   23310.35933372  .00000826  00000+0  28776-3 0  9993
2 42956  86.3973  63.8071 0002037  95.2761 264.8667 14.34221085318068
IRIDIUM 122             
1 42957U 17061C   23310.39738812  .00000617  00000+0  21334-3 0  9991
2 42957  86.3972  63.7888 0001854 100.2502 259.8903 14.34220374318077
IRIDIUM 129             
1 42958U 17061D   23310.42275706  .00000779  00000+0  27106-3 0  9996
2 42958  86.3973  63.8353 0001922  97.3526 262.7888 14.34220740318099
