<?xml version="1.0" encoding="UTF-8"?>
<ndm xmlns:xsi="http://www.w3.org/2001/XMLSchema-instance" xsi:noNamespaceSchemaLocation="https://sanaregistry.org/r/ndmxml_unqualified/ndmxml-2.0.0-master-2.0.xsd">
<omm id="CCSDS_OMM_VERS" version="2.0">
<header><CREATION_DATE/><ORIGINATOR/></header><body><segment><metadata><OBJECT_NAME>IRIDIUM 126</OBJECT_NAME><OBJECT_ID>2017-039G</OBJECT_ID><CENTER_NAME>EARTH</CENTER_NAME><REF_FRAME>TEME</REF_FRAME><TIME_SYSTEM>UTC</TIME_SYSTEM><MEAN_ELEMENT_THEORY>SGP4</MEAN_ELEMENT_THEORY></metadata><data><meanElements><EPOCH>2023-11-06T06:33:46.685664</EPOCH><MEAN_MOTION>14.34220181</MEAN_MOTION><ECCENTRICITY>.0001889</ECCENTRICITY><INCLINATION>86.4015</INCLINATION><RA_OF_ASC_NODE>32.2870</RA_OF_ASC_NODE><ARG_OF_PERICENTER>94.3002</ARG_OF_PERICENTER><MEAN_ANOMALY>265.8409</MEAN_ANOMALY></meanElements><tleParameters><EPHEMERIS_TYPE>0</EPHEMERIS_TYPE><CLASSIFICATION_TYPE>U</CLASSIFICATION_TYPE><NORAD_CAT_ID>42809</NORAD_CAT_ID><ELEMENT_SET_NO>999</ELEMENT_SET_NO><REV_AT_EPOCH>33322</REV_AT_EPOCH><BSTAR>.26725E-4</BSTAR><MEAN_MOTION_DOT>.95E-6</MEAN_MOTION_DOT><MEAN_MOTION_DDOT>0</MEAN_MOTION_DDOT></tleParameters></data></segment></body></omm>
<omm id="CCSDS_OMM_VERS" version="2.0">
<header><CREATION_DATE/><ORIGINATOR/></header><body><segment><metadata><OBJECT_NAME>IRIDIUM 124</OBJECT_NAME><OBJECT_ID>2017-039H</OBJECT_ID><CENTER_NAME>EARTH</CENTER_NAME><REF_FRAME>TEME</REF_FRAME><TIME_SYSTEM>UTC</TIME_SYSTEM><MEAN_ELEMENT_THEORY>SGP4</MEAN_ELEMENT_THEORY></metadata><data><meanElements><EPOCH>2023-11-06T13:05:19.582656</EPOCH><MEAN_MOTION>14.43279941</MEAN_MOTION><ECCENTRICITY>.0002455</ECCENTRICITY><INCLINATION>86.4480</INCLINATION><RA_OF_ASC_NODE>328.9514</RA_OF_ASC_NODE><ARG_OF_PERICENTER>94.4108</ARG_OF_PERICENTER><MEAN_ANOMALY>265.7373</MEAN_ANOMALY></meanElements><tleParameters><EPHEMERIS_TYPE>0</EPHEMERIS_TYPE><CLASSIFICATION_TYPE>U</CLASSIFICATION_TYPE><NORAD_CAT_ID>42810</NORAD_CAT_ID><ELEMENT_SET_NO>999</ELEMENT_SET_NO><REV_AT_EPOCH>33756</REV_AT_EPOCH><BSTAR>.29226E-3</BSTAR><MEAN_MOTION_DOT>.1003E-4</MEAN_MOTION_DOT><MEAN_MOTION_DDOT>0</MEAN_MOTION_DDOT></tleParameters></data></segment></body></omm>
<omm id="CCSDS_OMM_VERS" version="2.0">
<header><CREATION_DATE/><ORIGINATOR/></header><body><segment><metadata><OBJECT_NAME>IRIDIUM 128</OBJECT_NAME><OBJECT_ID>2017-039J</OBJECT_ID><CENTER_NAME>EARTH</CENTER_NAME><REF_FRAME>TEME</REF_FRAME><TIME_SYSTEM>UTC</TIME_SYSTEM><MEAN_ELEMENT_THEORY>SGP4</MEAN_ELEMENT_THEORY></metadata><data><meanElements><EPOCH>2023-11-06T14:42:46.073664</EPOCH><MEAN_MOTION>14.34221488</MEAN_MOTION><ECCENTRICITY>.0001924</ECCENTRICITY><INCLINATION>86.3973</INCLINATION><RA_OF_ASC_NODE>63.6656</RA_OF_ASC_NODE><ARG_OF_PERICENTER>97.1120</ARG_OF_PERICENTER><MEAN_ANOMALY>263.0294</MEAN_ANOMALY></meanElements><tleParameters><EPHEMERIS_TYPE>0</EPHEMERIS_TYPE><CLASSIFICATION_TYPE>U</CLASSIFICATION_TYPE><NORAD_CAT_ID>42811</NORAD_CAT_ID><ELEMENT_SET_NO>999</ELEMENT_SET_NO><REV_AT_EPOCH>33330</REV_AT_EPOCH><BSTAR>.34715E-3</BSTAR><MEAN_MOTION_DOT>.992E-5</MEAN_MOTION_DOT><MEAN_MOTION_DDOT>0</MEAN_MOTION_DDOT></tleParameters></data></segment></body></omm>
<omm id="CCSDS_OMM_VERS" version="2.0">
<header><CREATION_DATE/><ORIGINATOR/></header><body><segment><metadata><OBJECT_NAME>IRIDIUM 121</OBJECT_NAME><OBJECT_ID>2017-039K</OBJECT_ID><CENTER_NAME>EARTH</CENTER_NAME><REF_FRAME>TEME</REF_FRAME><TIME_SYSTEM>UTC</TIME_SYSTEM><MEAN_ELEMENT_THEORY>SGP4</MEAN_ELEMENT_THEORY></metadata><data><meanElements><EPOCH>2023-11-06T12:02:34.380384</EPOCH><MEAN_MOTION>14.34220077</MEAN_MOTION><ECCENTRICITY>.0001976</ECCENTRICITY><INCLINATION>86.4011</INCLINATION><RA_OF_ASC_NODE>32.2132</RA_OF_ASC_NODE><ARG_OF_PERICENTER>89.4813</ARG_OF_PERICENTER><MEAN_ANOMALY>270.6609</MEAN_ANOMALY></meanElements><tleParameters><EPHEMERIS_TYPE>0</EPHEMERIS_TYPE><CLASSIFICATION_TYPE>U</CLASSIFICATION_TYPE><NORAD_CAT_ID>42812</NORAD_CAT_ID><ELEMENT_SET_NO>999</ELEMENT_SET_NO><REV_AT_EPOCH>33313</REV_AT_EPOCH><BSTAR>.11239E-3</BSTAR><MEAN_MOTION_DOT>.335E-5</MEAN_MOTION_DOT><MEAN_MOTION_DDOT>0</MEAN_MOTION_DDOT></tleParameters></data></segment></body></omm>
<omm id="CCSDS_OMM_VERS" version="2.0">
<header><CREATION_DATE/><ORIGINATOR/></header><body><segment><metadata><OBJECT_NAME>IRIDIUM 133</OBJECT_NAME><OBJECT_ID>2017-061A</OBJECT_ID><CENTER_NAME>EARTH</CENTER_NAME><REF_FRAME>TEME</REF_FRAME><TIME_SYSTEM>UTC</TIME_SYSTEM><MEAN_ELEMENT_THEORY>SGP4</MEAN_ELEMENT_THEORY></metadata><data><meanElements><EPOCH>2023-11-06T08:46:34.015872</EPOCH><MEAN_MOTION>14.34224243</MEAN_MOTION><ECCENTRICITY>.0001769</ECCENTRICITY><INCLINATION>86.3974</INCLINATION><RA_OF_ASC_NODE>63.8634</RA_OF_ASC_NODE><ARG_OF_PERICENTER>89.7847</ARG_OF_PERICENTER><MEAN_ANOMALY>270.3552</MEAN_ANOMALY></meanElements><tleParameters><EPHEMERIS_TYPE>0</EPHEMERIS_TYPE><CLASSIFICATION_TYPE>U</CLASSIFICATION_TYPE><NORAD_CAT_ID>42955</NORAD_CAT_ID><ELEMENT_SET_NO>999</ELEMENT_SET_NO><REV_AT_EPOCH>31806</REV_AT_EPOCH><BSTAR>.32272E-3</BSTAR><MEAN_MOTION_DOT>.924E-5</MEAN_MOTION_DOT><MEAN_MOTION_DDOT>0</MEAN_MOTION_DDOT></tleParameters></data></segment></body></omm>
<omm id="CCSDS_OMM_VERS" version="2.0">
<header><CREATION_DATE/><ORIGINATOR/></header><body><segment><metadata><OBJECT_NAME>IRIDIUM 100</OBJECT_NAME><OBJECT_ID>2017-061B</OBJECT_ID><CENTER_NAME>EARTH</CENTER_NAME><REF_FRAME>TEME</REF_FRAME><TIME_SYSTEM>UTC</TIME_SYSTEM><MEAN_ELEMENT_THEORY>SGP4</MEAN_ELEMENT_THEORY></metadata><data><meanElements><EPOCH>2023-11-06T08:37:26.433408</EPOCH><MEAN_MOTION>14.34221085</MEAN_MOTION><ECCENTRICITY>.0002037</ECCENTRICITY><INCLINATION>86.3973</INCLINATION><RA_OF_ASC_NODE>63.8071</RA_OF_ASC_NODE><ARG_OF_PERICENTER>95.2761</ARG_OF_PERICENTER><MEAN_ANOMALY>264.8667</MEAN_ANOMALY></meanElements><tleParameters><EPHEMERIS_TYPE>0</EPHEMERIS_TYPE><CLASSIFICATION_TYPE>U</CLASSIFICATION_TYPE><NORAD_CAT_ID>42956</NORAD_CAT_ID><ELEMENT_SET_NO>999</ELEMENT_SET_NO><REV_AT_EPOCH>31806</REV_AT_EPOCH><BSTAR>.28776E-3</BSTAR><MEAN_MOTION_DOT>.826E-5</MEAN_MOTION_DOT><MEAN_MOTION_DDOT>0</MEAN_MOTION_DDOT></tleParameters></data></segment></body></omm>
<omm id="CCSDS_OMM_VERS" version="2.0">
<header><CREATION_DATE/><ORIGINATOR/></header><body><segment><metadata><OBJECT_NAME>IRIDIUM 122</OBJECT_NAME><OBJECT_ID>2017-061C</OBJECT_ID><CENTER_NAME>EARTH</CENTER_NAME><REF_FRAME>TEME</REF_FRAME><TIME_SYSTEM>UTC</TIME_SYSTEM><MEAN_ELEMENT_THEORY>SGP4</MEAN_ELEMENT_THEORY></metadata><data><meanElements><EPOCH>2023-11-06T09:32:14.333568</EPOCH><MEAN_MOTION>14.34220374</MEAN_MOTION><ECCENTRICITY>.0001854</ECCENTRICITY><INCLINATION>86.3972</INCLINATION><RA_OF_ASC_NODE>63.7888</RA_OF_ASC_NODE><ARG_OF_PERICENTER>100.2502</ARG_OF_PERICENTER><MEAN_ANOMALY>259.8903</MEAN_ANOMALY></meanElements><tleParameters><EPHEMERIS_TYPE>0</EPHEMERIS_TYPE><CLASSIFICATION_TYPE>U</CLASSIFICATION_TYPE><NORAD_CAT_ID>42957</NORAD_CAT_ID><ELEMENT_SET_NO>999</ELEMENT_SET_NO><REV_AT_EPOCH>31807</REV_AT_EPOCH><BSTAR>.21334E-3</BSTAR><MEAN_MOTION_DOT>.617E-5</MEAN_MOTION_DOT><MEAN_MOTION_DDOT>0</MEAN_MOTION_DDOT></tleParameters></data></segment></body></omm>
<omm id="CCSDS_OMM_VERS" version="2.0">
<header><CREATION_DATE/><ORIGINATOR/></header><body><segment><metadata><OBJECT_NAME>IRIDIUM 129</OBJECT_NAME><OBJECT_ID>2017-061D</OBJECT_ID><CENTER_NAME>EARTH</CENTER_NAME><REF_FRAME>TEME</REF_FRAME><TIME_SYSTEM>UTC</TIME_SYSTEM><MEAN_ELEMENT_THEORY>SGP4</MEAN_ELEMENT_THEORY></metadata><data><meanElements><EPOCH>2023-11-06T10:08:46.209984</EPOCH><MEAN_MOTION>14.34220740</MEAN_MOTION><ECCENTRICITY>.0001922</ECCENTRICITY><INCLINATION>86.3973</INCLINATION><RA_OF_ASC_NODE>63.8353</RA_OF_ASC_NODE><ARG_OF_PERICENTER>97.3526</ARG_OF_PERICENTER><MEAN_ANOMALY>262.7888</MEAN_ANOMALY></meanElements><tleParameters><EPHEMERIS_TYPE>0</EPHEMERIS_TYPE><CLASSIFICATION_TYPE>U</CLASSIFICATION_TYPE><NORAD_CAT_ID>42958</NORAD_CAT_ID><ELEMENT_SET_NO>999</ELEMENT_SET_NO><REV_AT_EPOCH>31809</REV_AT_EPOCH><BSTAR>.27106E-3</BSTAR><MEAN_MOTION_DOT>.779E-5</MEAN_MOTION_DOT><MEAN_MOTION_DDOT>0</MEAN_MOTION_DDOT></tleParameters></data></segment></body></omm>

</ndm>
